{
  "type": "FeatureCollection",
  "features": [
    {
      "type": "Feature",
      "properties": {
        "norad_id": 41330,
        "name": "COSMOS 2514 (751)",
        "group": "glo-ops",
        "lat": 62.86024773026082,
        "lon": 24.530561054957634,
        "alt_km": 19147.914878703457,
        "timestamp": "2025-12-02T07:10:09.376235+00:00",
        "meta_object_name": "COSMOS 2514 (751)",
        "meta_object_id": "2016-008A",
        "meta_epoch": "2025-12-01T06:10:30.326016",
        "meta_mean_motion": 2.13102518,
        "meta_eccentricity": 0.0012529,
        "meta_inclination": 65.1403,
        "meta_ra_of_asc_node": 319.7975,
        "meta_arg_of_pericenter": 219.8281,
        "meta_mean_anomaly": 140.091,
        "meta_ephemeris_type": 0,
        "meta_classification_type": "U",
        "meta_norad_cat_id": 41330,
        "meta_element_set_no": 999,
        "meta_rev_at_epoch": 7640,
        "meta_bstar": 0,
        "meta_mean_motion_dot": -2.7e-07,
        "meta_mean_motion_ddot": 0,
        "tle_line1": "1 41330U 16008A   25335.25729544 -.00000027  00000+0  00000+0 0  9990",
        "tle_line2": "2 41330  65.1403 319.7975 0012529 219.8281 140.0910  2.13102518 76408"
      },
      "geometry": {
        "type": "Point",
        "coordinates": [
          24.530561054957634,
          62.86024773026082
        ]
      }
    },
    {
      "type": "Feature",
      "properties": {
        "norad_id": 42939,
        "name": "COSMOS 2522 (752)",
        "group": "glo-ops",
        "lat": -20.45564071481339,
        "lon": 29.03472826752772,
        "alt_km": 19117.576638657603,
        "timestamp": "2025-12-02T07:10:09.376246+00:00",
        "meta_object_name": "COSMOS 2522 (752)",
        "meta_object_id": "2017-055A",
        "meta_epoch": "2025-12-01T13:33:34.905312",
        "meta_mean_motion": 2.13101875,
        "meta_eccentricity": 0.0006558,
        "meta_inclination": 64.0757,
        "meta_ra_of_asc_node": 198.6097,
        "meta_arg_of_pericenter": 226.2705,
        "meta_mean_anomaly": 133.7684,
        "meta_ephemeris_type": 0,
        "meta_classification_type": "U",
        "meta_norad_cat_id": 42939,
        "meta_element_set_no": 999,
        "meta_rev_at_epoch": 6376,
        "meta_bstar": 0,
        "meta_mean_motion_dot": 1.03e-06,
        "meta_mean_motion_ddot": 0,
        "tle_line1": "1 42939U 17055A   25335.56498733  .00000103  00000+0  00000+0 0  9990",
        "tle_line2": "2 42939  64.0757 198.6097 0006558 226.2705 133.7684  2.13101875 63768"
      },
      "geometry": {
        "type": "Point",
        "coordinates": [
          29.03472826752772,
          -20.45564071481339
        ]
      }
    },
    {
      "type": "Feature",
      "properties": {
        "norad_id": 43508,
        "name": "COSMOS 2527 (756)",
        "group": "glo-ops",
        "lat": -46.644295738739956,
        "lon": -70.63818851520884,
        "alt_km": 19113.897232972875,
        "timestamp": "2025-12-02T07:10:09.376257+00:00",
        "meta_object_name": "COSMOS 2527 (756)",
        "meta_object_id": "2018-053A",
        "meta_epoch": "2025-11-28T17:02:34.696320",
        "meta_mean_motion": 2.1310209,
        "meta_eccentricity": 0.00085767,
        "meta_inclination": 65.4651,
        "meta_ra_of_asc_node": 80.6007,
        "meta_arg_of_pericenter": 223.0414,
        "meta_mean_anomaly": 136.8979,
        "meta_ephemeris_type": 0,
        "meta_classification_type": "U",
        "meta_norad_cat_id": 43508,
        "meta_element_set_no": 999,
        "meta_rev_at_epoch": 5800,
        "meta_bstar": 0,
        "meta_mean_motion_dot": 1.2e-07,
        "meta_mean_motion_ddot": 0,
        "tle_line1": "1 43508U 18053A   25332.71012380  .00000012  00000+0  00000+0 0  9995",
        "tle_line2": "2 43508  65.4651  80.6007 0008576 223.0414 136.8979  2.13102090 58006"
      },
      "geometry": {
        "type": "Point",
        "coordinates": [
          -70.63818851520884,
          -46.644295738739956
        ]
      }
    },
    {
      "type": "Feature",
      "properties": {
        "norad_id": 43687,
        "name": "COSMOS 2529 (757)",
        "group": "glo-ops",
        "lat": 19.609263292652344,
        "lon": 9.365394555469962,
        "alt_km": 19129.929103893843,
        "timestamp": "2025-12-02T07:10:09.376268+00:00",
        "meta_object_name": "COSMOS 2529 (757)",
        "meta_object_id": "2018-086A",
        "meta_epoch": "2025-12-01T03:41:39.870816",
        "meta_mean_motion": 2.13101897,
        "meta_eccentricity": 0.0007348,
        "meta_inclination": 64.2916,
        "meta_ra_of_asc_node": 199.28,
        "meta_arg_of_pericenter": 254.5997,
        "meta_mean_anomaly": 105.4111,
        "meta_ephemeris_type": 0,
        "meta_classification_type": "U",
        "meta_norad_cat_id": 43687,
        "meta_element_set_no": 999,
        "meta_rev_at_epoch": 5506,
        "meta_bstar": 0,
        "meta_mean_motion_dot": 9.9e-07,
        "meta_mean_motion_ddot": 0,
        "tle_line1": "1 43687U 18086A   25335.15393369  .00000099  00000+0  00000+0 0  9994",
        "tle_line2": "2 43687  64.2916 199.2800 0007348 254.5997 105.4111  2.13101897 55061"
      },
      "geometry": {
        "type": "Point",
        "coordinates": [
          9.365394555469962,
          19.609263292652344
        ]
      }
    },
    {
      "type": "Feature",
      "properties": {
        "norad_id": 44299,
        "name": "COSMOS 2534 (758)",
        "group": "glo-ops",
        "lat": -56.332599025928175,
        "lon": 153.14996119752226,
        "alt_km": 19113.13219106441,
        "timestamp": "2025-12-02T07:10:09.376280+00:00",
        "meta_object_name": "COSMOS 2534 (758)",
        "meta_object_id": "2019-030A",
        "meta_epoch": "2025-12-01T03:07:57.438624",
        "meta_mean_motion": 2.1310195,
        "meta_eccentricity": 0.00091167,
        "meta_inclination": 64.3652,
        "meta_ra_of_asc_node": 199.2842,
        "meta_arg_of_pericenter": 283.4428,
        "meta_mean_anomaly": 193.0266,
        "meta_ephemeris_type": 0,
        "meta_classification_type": "U",
        "meta_norad_cat_id": 44299,
        "meta_element_set_no": 999,
        "meta_rev_at_epoch": 5070,
        "meta_bstar": 0,
        "meta_mean_motion_dot": 9.9e-07,
        "meta_mean_motion_ddot": 0,
        "tle_line1": "1 44299U 19030A   25335.13052591  .00000099  00000+0  00000+0 0  9991",
        "tle_line2": "2 44299  64.3652 199.2842 0009116 283.4428 193.0266  2.13101950 50700"
      },
      "geometry": {
        "type": "Point",
        "coordinates": [
          153.14996119752226,
          -56.332599025928175
        ]
      }
    },
    {
      "type": "Feature",
      "properties": {
        "norad_id": 44850,
        "name": "COSMOS 2544 (759)",
        "group": "glo-ops",
        "lat": -64.88972027350435,
        "lon": 3.470412723151937,
        "alt_km": 19105.52681716842,
        "timestamp": "2025-12-02T07:10:09.376291+00:00",
        "meta_object_name": "COSMOS 2544 (759)",
        "meta_object_id": "2019-088A",
        "meta_epoch": "2025-12-01T11:17:07.204992",
        "meta_mean_motion": 2.13101815,
        "meta_eccentricity": 0.00136421,
        "meta_inclination": 65.4539,
        "meta_ra_of_asc_node": 80.3354,
        "meta_arg_of_pericenter": 248.7415,
        "meta_mean_anomaly": 111.1111,
        "meta_ephemeris_type": 0,
        "meta_classification_type": "U",
        "meta_norad_cat_id": 44850,
        "meta_element_set_no": 999,
        "meta_rev_at_epoch": 4650,
        "meta_bstar": 0,
        "meta_mean_motion_dot": -1.2e-07,
        "meta_mean_motion_ddot": 0,
        "tle_line1": "1 44850U 19088A   25335.47022228 -.00000012  00000+0  00000+0 0  9994",
        "tle_line2": "2 44850  65.4539  80.3354 0013642 248.7415 111.1111  2.13101815 46509"
      },
      "geometry": {
        "type": "Point",
        "coordinates": [
          3.470412723151937,
          -64.88972027350435
        ]
      }
    },
    {
      "type": "Feature",
      "properties": {
        "norad_id": 45358,
        "name": "COSMOS 2545 (760)",
        "group": "glo-ops",
        "lat": 47.537462482608504,
        "lon": 107.85001280578298,
        "alt_km": 19141.065747242294,
        "timestamp": "2025-12-02T07:10:09.376302+00:00",
        "meta_object_name": "COSMOS 2545 (760)",
        "meta_object_id": "2020-018A",
        "meta_epoch": "2025-11-30T06:11:57.120864",
        "meta_mean_motion": 2.13102401,
        "meta_eccentricity": 0.00119448,
        "meta_inclination": 64.4769,
        "meta_ra_of_asc_node": 319.4079,
        "meta_arg_of_pericenter": 248.2158,
        "meta_mean_anomaly": 111.6706,
        "meta_ephemeris_type": 0,
        "meta_classification_type": "U",
        "meta_norad_cat_id": 45358,
        "meta_element_set_no": 999,
        "meta_rev_at_epoch": 4442,
        "meta_bstar": 0,
        "meta_mean_motion_dot": -2.2e-07,
        "meta_mean_motion_ddot": 0,
        "tle_line1": "1 45358U 20018A   25334.25830001 -.00000022  00000+0  00000+0 0  9995",
        "tle_line2": "2 45358  64.4769 319.4079 0011944 248.2158 111.6706  2.13102401 44425"
      },
      "geometry": {
        "type": "Point",
        "coordinates": [
          107.85001280578298,
          47.537462482608504
        ]
      }
    }
  ]
}